[ {"name": "STARLINK-3538", "line1": "1 51996U 22025AS  26199.14534738  .00000962  00000+0  40582-4 0  9992", "line2": "2 51996  53.1624 150.3105 0001523  81.2085 278.9089 15.33550963240653"}, {"name": "STARLINK-3589", "line1": "1 51997U 22025AT  26199.88506325  .00001058  00000+0  41226-4 0  9998", "line2": "2 51997  53.1623 146.9822 0001095  75.3032 284.8092 15.35398634240758"}, {"name": "STARLINK-3618", "line1": "1 51998U 22025AU  26199.91668981 -.00001735  00000+0 -38830-4 0  9991", "line2": "2 51998  53.1602 147.3560 0001335  97.1863  30.8524 15.35408704  5748"}, {"name": "STARLINK-3653", "line1": "1 52000U 22025AW  26199.91668981  .00037025  00000+0  20689-2 0  9996", "line2": "2 52000  53.1597 149.5862 0002845 122.3715 332.0322 15.13177116  5399"}, {"name": "STARLINK-3659", "line1": "1 52001U 22025AX  26199.91668981  .00020049  00000+0  10639-2 0  9999", "line2": "2 52001  53.1594 149.6318 0001557  81.6220 335.0585 15.15350717  5791"}, {"name": "STARLINK-3668", "line1": "1 52002U 22025AY  26199.91668981  .00032873  00000+0  17481-2 0  9990", "line2": "2 52002  53.1593 149.6851 0001676  69.7626 339.1839 15.15001495  5807"}, {"name": "STARLINK-3712", "line1": "1 52090U 22029C   26199.91668981  .00090627  00000+0  29568-2 0  9991", "line2": "2 52090  53.1610 218.5772 0000672 142.5064 172.6514 15.31042402  5758"}, {"name": "STARLINK-3716", "line1": "1 52092U 22029E   26199.77618106  .00000998  00000+0  64938-4 0  9995", "line2": "2 52092  53.1585 219.6985 0001163  94.5274 265.5854 15.17347023240452"}, {"name": "STARLINK-3673", "line1": "1 52093U 22029F   26199.23611627  .00000352  00000+0  21001-4 0  9996", "line2": "2 52093  53.1602 217.9264 0001376  67.6698 292.4451 15.35395314240437"}, {"name": "STARLINK-3714", "line1": "1 52094U 22029G   26199.91668981  .00126963  00000+0  41162-2 0  9992", "line2": "2 52094  53.1607 218.6026 0000293 158.5183 163.5498 15.31051370  5809"}, {"name": "STARLINK-3701", "line1": "1 52095U 22029H   26199.78217326  .00000554  00000+0  26785-4 0  9994", "line2": "2 52095  53.1606 215.7228 0001038  61.7918 298.3190 15.35400556240513"}, {"name": "STARLINK-3717", "line1": "1 52096U 22029J   26199.41751246  .00003675  00000+0  12303-3 0  9996", "line2": "2 52096  53.1614 209.3381 0001146  70.0936 290.0190 15.33541578240556"}, {"name": "STARLINK-3665", "line1": "1 52098U 22029L   26199.91668981  .00362236  00000+0  14322-1 0  9998", "line2": "2 52098  53.1599 219.1600 0000772  64.3702  10.5511 15.23380447  5808"}, {"name": "STARLINK-3702", "line1": "1 52100U 22029N   26199.45486584  .00000105  00000+0  13921-4 0  9999", "line2": "2 52100  53.1596 217.2756 0001222  79.0716 281.0424 15.35409409240463"}, {"name": "STARLINK-3703", "line1": "1 52101U 22029P   26199.91668981  .00077448  00000+0  30357-2 0  9998", "line2": "2 52101  53.1590 219.2480 0003231  48.2390  60.2351 15.25099223  5803"}, {"name": "STARLINK-3709", "line1": "1 52102U 22029Q   26199.73760647  .00000414  00000+0  23906-4 0  9994", "line2": "2 52102  53.1608 207.5748 0001150  92.3283 267.7851 15.33546204240614"}, {"name": "STARLINK-3705", "line1": "1 52103U 22029R   26199.30911938 -.00000522  00000+0 -40578-5 0  9996", "line2": "2 52103  53.1606 209.4558 0001024  72.4482 287.6633 15.35398946240544"}, {"name": "STARLINK-3706", "line1": "1 52105U 22029T   26199.31368374  .00000429  00000+0  23209-4 0  9994", "line2": "2 52105  53.1615 209.5548 0001124  89.2761 270.8371 15.35392410240546"}, {"name": "STARLINK-3670", "line1": "1 52106U 22029U   26199.42484212  .00000436  00000+0  24034-4 0  9992", "line2": "2 52106  53.1586 217.2064 0001134  71.7813 288.3313 15.34387121240449"}, {"name": "STARLINK-3658", "line1": "1 52107U 22029V   26199.91668981  .00058112  00000+0  16654-2 0  9995", "line2": "2 52107  53.1594 206.9046 0001235  71.9872 318.6431 15.35374233  5609"}, {"name": "STARLINK-3698", "line1": "1 52108U 22029W   26199.43756021  .00000427  00000+0  24314-4 0  9996", "line2": "2 52108  53.1610 208.8764 0001204  71.0782 289.0351 15.33550591240563"}, {"name": "STARLINK-3687", "line1": "1 52110U 22029Y   26199.31065262  .00002289  00000+0  80892-4 0  9997", "line2": "2 52110  53.1595 209.5446 0001034  81.7154 278.3965 15.33558935240545"}, {"name": "STARLINK-3708", "line1": "1 52111U 22029Z   26199.74952835  .00002611  00000+0  85760-4 0  9994", "line2": "2 52111  53.1602 207.4628 0001149  75.3516 284.7614 15.35392783240611"}, {"name": "STARLINK-3734", "line1": "1 52112U 22029AA  26199.91668981 -.00763600  00000+0 -10617-1 0  9990", "line2": "2 52112  53.2178 185.7292 0000821 102.9948  96.5157 15.58924139  5934"}, {"name": "STARLINK-3736", "line1": "1 52113U 22029AB  26199.96275274 -.00000093  00000+0  85023-5 0  9991", "line2": "2 52113  53.1609 206.0389 0001349  83.3278 276.7878 15.33551773240656"}, {"name": "STARLINK-3737", "line1": "1 52114U 22029AC  26199.73971916 -.00001657  00000+0 -39082-4 0  9994", "line2": "2 52114  53.1617 207.3647 0000966  39.4975 320.6097 15.33546794240612"}, {"name": "STARLINK-3685", "line1": "1 52115U 22029AD  26199.43172424  .00001470  00000+0  53017-4 0  9994", "line2": "2 52115  53.1595 207.0838 0001044  71.4282 288.6834 15.35406662240592"}, {"name": "STARLINK-3735", "line1": "1 52116U 22029AE  26199.72133650  .00000460  00000+0  25331-4 0  9991", "line2": "2 52116  53.1609 207.3306 0001349  79.3067 280.8087 15.33551559240619"}, {"name": "STARLINK-3738", "line1": "1 52117U 22029AF  26199.32486355  .00000499  00000+0  26485-4 0  9994", "line2": "2 52117  53.1603 209.3212 0001110  87.9747 272.1383 15.33551172240566"}, {"name": "STARLINK-3743", "line1": "1 52118U 22029AG  26199.27608757  .00001252  00000+0  48189-4 0  9994", "line2": "2 52118  53.1596 209.6027 0001106  75.9122 284.2004 15.34390626240542"}, {"name": "STARLINK-3558", "line1": "1 52119U 22029AH  26199.43699536  .00000252  00000+0  18126-4 0  9995", "line2": "2 52119  53.1606 207.2749 0000993  71.4874 288.6237 15.35401677240599"}, {"name": "STARLINK-3534", "line1": "1 52120U 22029AJ  26199.29237082  .00001671  00000+0  60589-4 0  9991", "line2": "2 52120  53.1587 207.6716 0001046  81.9552 278.1570 15.34391555240581"}, {"name": "STARLINK-3678", "line1": "1 52121U 22029AK  26199.72375058 -.00001021  00000+0 -46073-4 0  9999", "line2": "2 52121  53.1592 200.5990 0001089  75.6519 284.4593 15.08829555240700"}, {"name": "STARLINK-3726", "line1": "1 52122U 22029AL  26199.73199372  .00000080  00000+0  13753-4 0  9995", "line2": "2 52122  53.1614 207.6331 0001298  81.5769 278.5381 15.33544713240615"}, {"name": "STARLINK-3725", "line1": "1 52123U 22029AM  26199.69892403 -.00000569  00000+0 -17651-4 0  9991", "line2": "2 52123  53.1603 200.5332 0001142  74.1846 285.9272 15.08833297240711"}, {"name": "STARLINK-3727", "line1": "1 52125U 22029AP  26199.71271044 -.00000373  00000+0 -53593-5 0  9997", "line2": "2 52125  53.1595 200.6479 0001006  70.6670 289.4430 15.08832649240716"}, {"name": "STARLINK-3732", "line1": "1 52126U 22029AQ  26199.72008859  .00000666  00000+0  59947-4 0  9992", "line2": "2 52126  53.1565 200.6149 0000906  69.4726 290.6363 15.08807402240701"}, {"name": "STARLINK-3715", "line1": "1 52127U 22029AR  26199.70900268  .00001797  00000+0  13095-3 0  9995", "line2": "2 52127  53.1595 200.6654 0000541  62.8295 297.2752 15.08848229240706"}, {"name": "STARLINK-3661", "line1": "1 52129U 22029AT  26199.30422761 -.00000530  00000+0 -15234-4 0  9994", "line2": "2 52129  53.1592 202.4856 0001312  65.5555 294.5573 15.08829966240657"}, {"name": "STARLINK-3711", "line1": "1 52131U 22029AV  26199.41945246  .00014037  00000+0  65924-3 0  9992", "line2": "2 52131  53.2135 193.0333 0001395 352.1833   7.9142 15.19891278240806"}, {"name": "STARLINK-3718", "line1": "1 52132U 22029AW  26199.70535231  .00000218  00000+0  31798-4 0  9993", "line2": "2 52132  53.1597 200.6815 0000952  80.1041 280.0058 15.08840491240714"}, {"name": "STARLINK-3707", "line1": "1 52133U 22029AX  26199.42566639 -.00000503  00000+0 -13490-4 0  9997", "line2": "2 52133  53.1607 201.9386 0001064  69.8498 290.2608 15.08832326240676"}, {"name": "STARLINK-3721", "line1": "1 52134U 22029AY  26199.69431664  .00000308  00000+0  37430-4 0  9997", "line2": "2 52134  53.1594 200.7327 0001406  77.5069 282.6080 15.08840839240716"}, {"name": "STARLINK-3720", "line1": "1 52136U 22029BA  26199.28951891  .00000219  00000+0  31836-4 0  9998", "line2": "2 52136  53.1603 202.5504 0001106  53.8509 306.2585 15.08834116240656"}, {"name": "STARLINK-3733", "line1": "1 52137U 22029BB  26199.74215327  .00000141  00000+0  26920-4 0  9999", "line2": "2 52137  53.1603 200.5154 0000922  71.8184 288.2908 15.08831915240720"}, {"name": "STARLINK-3723", "line1": "1 52138U 22029BC  26199.28582780  .00000042  00000+0  20709-4 0  9998", "line2": "2 52138  53.1593 202.5687 0001448  86.4983 273.6174 15.08837718240657"}, {"name": "STARLINK-3730", "line1": "1 52139U 22029BD  26199.31664764 -.00000101  00000+0  80197-5 0  9991", "line2": "2 52139  53.1605 209.4605 0001071  84.4721 275.6404 15.35401525240558"}, {"name": "STARLINK-3682", "line1": "1 52140U 22029BE  26199.73846713  .00000603  00000+0  55946-4 0  9994", "line2": "2 52140  53.1600 200.5318 0001036  73.3879 286.7226 15.08835497240723"}, {"name": "STARLINK-3761", "line1": "1 52262U 22041B   26199.53607227  .00000319  00000+0  38140-4 0  9997", "line2": "2 52262  53.1593 241.3926 0001183  85.3321 274.7805 15.08830722234117"}, {"name": "STARLINK-3786", "line1": "1 52263U 22041C   26199.80471165 -.00000100  00000+0  11789-4 0  9997", "line2": "2 52263  53.1584 240.2373 0001102  82.2952 277.8165 15.08836937234150"}, {"name": "STARLINK-3795", "line1": "1 52264U 22041D   26199.50852191  .00000053  00000+0  12712-4 0  9990", "line2": "2 52264  53.1598 237.1131 0001202  81.1401 278.9738 15.34388244234173"}, {"name": "STARLINK-3740", "line1": "1 52265U 22041E   26199.91668981  .00036724  00000+0  10595-2 0  9997", "line2": "2 52265  53.1605 237.3538 0001273  92.0657   1.9473 15.35373731  5642"}]